[{"OBJECT_NAME":"CBERS 4A","OBJECT_ID":"2019-093E","EPOCH":"2026-03-09T22:45:31.017888","MEAN_MOTION":14.81577142,"ECCENTRICITY":0.00028121,"INCLINATION":97.7589,"RA_OF_ASC_NODE":139.3418,"ARG_OF_PERICENTER":122.1597,"MEAN_ANOMALY":237.989,"EPHEMERIS_TYPE":0,"CLASSIFICATION_TYPE":"U","NORAD_CAT_ID":44883,"ELEMENT_SET_NO":999,"REV_AT_EPOCH":33638,"BSTAR":0.00022932403,"MEAN_MOTION_DOT":1.75e-5,"MEAN_MOTION_DDOT":0},{"OBJECT_NAME":"KUIPER-00079","OBJECT_ID":"2025-151L","EPOCH":"2026-03-09T19:51:29.525184","MEAN_MOTION":14.79928203,"ECCENTRICITY":8.516e-5,"INCLINATION":51.8985,"RA_OF_ASC_NODE":299.9538,"ARG_OF_PERICENTER":76.9433,"MEAN_ANOMALY":283.1624,"EPHEMERIS_TYPE":0,"CLASSIFICATION_TYPE":"U","NORAD_CAT_ID":64826,"ELEMENT_SET_NO":999,"REV_AT_EPOCH":3652,"BSTAR":-2.9016916e-5,"MEAN_MOTION_DOT":-4.42e-6,"MEAN_MOTION_DDOT":0}]
